{"type": "FeatureCollection", "features": [ {"type": "Feature", "properties": {"norad_id": 64902, "name": "CO3D 2", "group": "resource", "lat": -5.619730736706762, "lon": 75.61808141106246, "alt_km": 508.80423826283914, "timestamp": "2025-12-24T18:55:55.715221+00:00", "meta": {"OBJECT_NAME": "CO3D 2", "OBJECT_ID": "2025-156D", "EPOCH": "2025-12-24T06:19:08.988672", "MEAN_MOTION": 15.20213833, "ECCENTRICITY": 8.009e-05, "INCLINATION": 97.4336, "RA_OF_ASC_NODE": 74.364, "ARG_OF_PERICENTER": 69.0736, "MEAN_ANOMALY": 291.0585, "EPHEMERIS_TYPE": 0, "CLASSIFICATION_TYPE": "U", "NORAD_CAT_ID": 64902, "ELEMENT_SET_NO": 999, "REV_AT_EPOCH": 2295, "BSTAR": 0.00028298392, "MEAN_MOTION_DOT": 6.065e-05, "MEAN_MOTION_DDOT": 0}, "tle": {"line1": "1 64902U 25156D   25358.26329848  .00006065  00000+0  28298-3 0  9993", "line2": "2 64902  97.4336  74.3640 0000800  69.0736 291.0585 15.20213833 22954"}}, "geometry": {"type": "Point", "coordinates": [75.61808141106246, -5.619730736706762]}}, {"type": "Feature", "properties": {"norad_id": 64903, "name": "CO3D 1", "group": "resource", "lat": -6.456777665397289, "lon": 75.72847132199304, "alt_km": 508.9796944496484, "timestamp": "2025-12-24T18:55:55.715231+00:00", "meta": {"OBJECT_NAME": "CO3D 1", "OBJECT_ID": "2025-156E", "EPOCH": "2025-12-24T06:19:22.284768", "MEAN_MOTION": 15.20211929, "ECCENTRICITY": 9.017e-05, "INCLINATION": 97.4337, "RA_OF_ASC_NODE": 74.364, "ARG_OF_PERICENTER": 77.1772, "MEAN_ANOMALY": 282.9564, "EPHEMERIS_TYPE": 0, "CLASSIFICATION_TYPE": "U", "NORAD_CAT_ID": 64903, "ELEMENT_SET_NO": 999, "REV_AT_EPOCH": 2295, "BSTAR": 0.00032889335, "MEAN_MOTION_DOT": 7.061e-05, "MEAN_MOTION_DDOT": 0}, "tle": {"line1": "1 64903U 25156E   25358.26345237  .00007061  00000+0  32889-3 0  9992", "line2": "2 64903  97.4337  74.3640 0000901  77.1772 282.9564 15.20211929 22958"}}, "geometry": {"type": "Point", "coordinates": [75.72847132199304, -6.456777665397289]}}, {"type": "Feature", "properties": {"norad_id": 66514, "name": "SENTINEL-6B", "group": "resource", "lat": -31.327039648994898, "lon": -26.889254706893734, "alt_km": 1339.2364073918225, "timestamp": "2025-12-24T18:55:55.715241+00:00", "meta": {"OBJECT_NAME": "SENTINEL-6B", "OBJECT_ID": "2025-264A", "EPOCH": "2025-12-23T02:27:52.423776", "MEAN_MOTION": 12.8092954, "ECCENTRICITY": 0.00078893, "INCLINATION": 66.0396, "RA_OF_ASC_NODE": 140.9099, "ARG_OF_PERICENTER": 269.9741, "MEAN_ANOMALY": 90.037, "EPHEMERIS_TYPE": 0, "CLASSIFICATION_TYPE": "U", "NORAD_CAT_ID": 66514, "ELEMENT_SET_NO": 999, "REV_AT_EPOCH": 461, "BSTAR": -1.0381303e-05, "MEAN_MOTION_DOT": -6.3e-07, "MEAN_MOTION_DDOT": 0}, "tle": {"line1": "1 66514U 25264A   25357.10269009 -.00000063  00000+0 -10381-4 0  9997", "line2": "2 66514  66.0396 140.9099 0007889 269.9741  90.0370 12.80929540  4616"}}, "geometry": {"type": "Point", "coordinates": [-26.889254706893734, -31.327039648994898]}}]}